{
    "links": {
        "self": "http://www.neowsapp.com/rest/v1/neo/3770348?api_key=iIulBulltgU6a56xZRHN4H3l9WmuAYTsLGpBGhQ2"
    },
    "id": "3770348",
    "neo_reference_id": "3770348",
    "name": "(2017 ET)",
    "designation": "2017 ET",
    "nasa_jpl_url": "http://ssd.jpl.nasa.gov/sbdb.cgi?sstr=3770348",
    "absolute_magnitude_h": 25.2,
    "estimated_diameter": {
        "kilometers": {
            "estimated_diameter_min": 0.0242412481,
            "estimated_diameter_max": 0.0542050786
        },
        "meters": {
            "estimated_diameter_min": 24.2412481101,
            "estimated_diameter_max": 54.2050786336
        },
        "miles": {
            "estimated_diameter_min": 0.0150628086,
            "estimated_diameter_max": 0.0336814639
        },
        "feet": {
            "estimated_diameter_min": 79.5316564495,
            "estimated_diameter_max": 177.8381901842
        }
    },
    "is_potentially_hazardous_asteroid": false,
    "close_approach_data": [
        {
            "close_approach_date": "2017-02-25",
            "close_approach_date_full": "2017-Feb-25 20:41",
            "epoch_date_close_approach": 1488055260000,
            "relative_velocity": {
                "kilometers_per_second": "9.2580178974",
                "kilometers_per_hour": "33328.8644304821",
                "miles_per_hour": "20709.2602345959"
            },
            "miss_distance": {
                "astronomical": "0.05885967",
                "lunar": "22.89641163",
                "kilometers": "8805281.2609029",
                "miles": "5471348.06574402"
            },
            "orbiting_body": "Earth"
        }
    ],
    "orbital_data": {
        "orbit_id": "5",
        "orbit_determination_date": "2017-04-06 08:19:44",
        "first_observation_date": "2017-03-02",
        "last_observation_date": "2017-03-17",
        "data_arc_in_days": 15,
        "observations_used": 24,
        "orbit_uncertainty": "8",
        "minimum_orbit_intersection": ".048978",
        "jupiter_tisserand_invariant": "5.322",
        "epoch_osculation": "2457817.5",
        "eccentricity": ".1352730906611196",
        "semi_major_axis": "1.176498321922928",
        "inclination": "17.3907301150277",
        "ascending_node_longitude": "159.3844866886158",
        "orbital_period": "466.1067528794047",
        "perihelion_distance": "1.017349757758793",
        "perihelion_argument": "324.3846069360159",
        "aphelion_distance": "1.335646886087064",
        "perihelion_time": "2457775.477338359812",
        "mean_anomaly": "32.45642354892415",
        "mean_motion": ".7723552550484983",
        "equinox": "J2000",
        "orbit_class": {
            "orbit_class_type": "AMO",
            "orbit_class_description": "Near-Earth asteroid orbits similar to that of 1221 Amor",
            "orbit_class_range": "1.017 AU < q (perihelion) < 1.3 AU"
        }
    },
    "is_sentry_object": false
}